[
    {
        "name": "ELEKTRO-L 2             ",
        "line1": "1 41105U 15074A   21138.84056535 -.00000108  00000-0  00000-0 0  9999",
        "line2": "2 41105   2.0105  92.8064 0001353  30.7064  41.3423  1.00270806 19913"
    },
    {
        "name": "NOAA 19 [+]             ",
        "line1": "1 33591U 09005A   21139.50773469  .00000069  00000-0  62964-4 0  9998",
        "line2": "2 33591  99.1851 159.4940 0013452 209.9470 150.0932 14.12468154632832"
    },
    {
        "name": "NOAA 3 [-]              ",
        "line1": "1 06920U 73086A   21137.92886561 -.00000046  00000-0 -62391-5 0  9998",
        "line2": "2 06920 102.1570 114.1452 0006140 303.2468 118.3988 12.40343305151752"
    }
]
